1 20253U 89077A   26109.70356478 -.00000369  00000-0  00000+0 0  9999
2 20253  12.4380 351.5174 0007673   5.4863 229.5896  1.00263736259978
1 20776U 90079A   26109.81155810  .00000125  00000-0  00000+0 0  9991
2 20776  13.3594 350.2124 0002538  38.8052 144.4523  1.00274887130307
1 22787U 93056A   26109.81968402  .00000124  00000-0  00000+0 0  9991
2 22787  11.8753   3.8750 0009030 351.7979 175.9759  1.00275409117964
1 23467U 95003A   26109.64290546 -.00000021  00000-0  00000+0 0  9996
2 23467   9.7090  13.4258 0003536  12.0120 226.0301  1.00272063114365
1 23967U 96042A   26109.07187866 -.00000256  00000-0  00000-0 0  9993
2 23967  11.0618  17.4003 0007006  96.0644  85.1462  1.00232124108890
1 25544U 98067A   26109.81257399  .00009614  00000-0  18340-3 0  9991
2 25544  51.6328 229.0112 0006646 327.0839  32.9735 15.48838577562703
1 25967U 99063A   26107.12127912 -.00000179  00000-0  00000-0 0  9995
2 25967   9.8559  27.5336 0003913 326.7730 231.8326  1.00274470 96732
1 27168U 02001A   26109.82010307  .00000098  00000-0  00000+0 0  9992
2 27168  11.1115  22.2583 0099604   6.5430 133.3592  1.00276612 32370
1 27607U 02058C   26109.82375903  .00000619  00000-0  90988-4 0  9996
2 27607  64.5519 309.5429 0075564 273.0846  86.1616 14.82915031255805
1 28117U 03057A   26109.81016962 -.00000102  00000-0  00000+0 0  9998
2 28117   8.9229  34.1127 0002900 340.3171 200.5663  1.00272139 81869
1 28899U 05044A   26109.74874389 -.00000259  00000-0  00000+0 0  9993
2 28899   5.0187  43.7422 0002483 335.1835 241.9691  1.00270027 74930
1 30794U 07007B   26109.86275022 -.00000269  00000-0  00000+0 0  9994
2 30794   5.1540  74.4326 0004160 326.8530 212.5005  1.00270959 70111
1 32294U 07056B   26109.80355958  .00000143  00000-0  00000+0 0  9996
2 32294   5.1053  74.1817 0003866 312.2083 135.8794  1.00273116 67614
1 35943U 09054B   26109.88518545  .00000026  00000-0  00000+0 0  9991
2 35943   0.0082 188.4118 0003274 204.3523 196.9162  1.00269465 60724
1 36582U 10021B   26109.82371618  .00000090  00000-0  00000+0 0  9990
2 36582   0.0308 116.4452 0002654 286.7520 114.4371  1.00273321 58370
1 38098U 12011A   26109.81016962 -.00000057  00000-0  00000+0 0  9996
2 38098   0.0092 246.3940 0001964 163.5540 161.7259  1.00271865  6606
1 39034U 12075A   26109.88700281  .00000100  00000-0  00000+0 0  9996
2 39034   0.0720 349.6230 0003529  34.0424 196.4033  1.00269385 48577
1 39215U 13038A   26109.81155810  .00000135  00000-0  00000+0 0  9990
2 39215   2.9913   1.8192 0001976  51.6476 111.4896  1.00272437 43439
1 40296U 14069A   26109.85725126  .00000211  00000-0  00000+0 0  9998
2 40296  63.4485 221.0984 6669524 270.9422  19.3446  2.00584616 84060
1 40931U 15052B   25151.18580175  .00001241  00000-0  78118-4 0  9996
2 40931   6.0006  24.0987 0012733 338.8432  21.1169 14.78805930523159
1 43678U 18084H   26109.81237559  .00002035  00000-0  16794-3 0  9997
2 43678  98.1045 303.5438 0013705   7.2890 352.8529 15.00162683407462
1 43700U 18090A   26109.81155810  .00000000  00000-0  00000+0 0  9998
2 43700   0.0140 236.8903 0001047 168.6288 120.3126  1.00271114 27093
1 43803U 18099AX  26109.72936263  .00016269  00000-0  53172-3 0  9996
2 43803  97.4172 172.4320 0007469 117.2293 242.9710 15.31781652404675
1 44453U 19046A   26109.89534795 -.00000041  00000-0  00000+0 0  9993
2 44453  63.0814  58.2542 7058392 274.6994  14.9513  2.00613173 49172
1 44909U 19096E   26109.44749394  .00000022  00000-0  50559-4 0  9995
2 44909  82.5263  18.7367 0216403 281.8279  75.8626 12.79747884294836
1 45254U 20015A   26106.65281831 -.00000075  00000-0  00000-0 0  9990
2 45254  65.5094 325.5206 6878027 278.9530  14.7936  2.00601914 45053
1 52145U 22030A   26109.15252105  .00000262  00000-0  00000-0 0  9993
2 52145  62.6758 147.1137 6768533 272.9110  17.7643  2.00616540 29842
1 57167U 23091B   26010.59363612  .08733485  25619-5  12458-2 0  9993
2 57167  97.4978  91.1570 0009532 282.8011  77.2220 16.34765267141469
1 59112U 24043Q   26109.12331575  .00034379  00000-0  52127-3 0  9992
2 59112  97.5472 256.1189 0007150  65.0290 295.1706 15.54527845118704
1 67291U 25313AV  26109.17864913  .00011869  00000-0  48176-3 0  9990
2 67291  97.3957 185.0690 0009281 193.5061 166.5930 15.24712717 16993
1 26635U 00080A   21013.46269075 0.00000000  00000-0  00000-0 0    09
2 26635   9.2857  29.8038 0014383 186.3086 173.6859  1.00273100    09
1 34810U 09020A   25358.93258989 0.00000000  00000-0  00000-0 0    06
2 34810   2.7881  81.1408 0004972 246.2147 113.7417  1.00270000    08
1 40614U 15022B   25359.93496764 0.00000000  00000-0  00000-0 0    00
2 40614   0.0160 108.2839 0003453 352.8976   7.0980  1.00270000    04
